{"type": "FeatureCollection", "name": "municipios_cesar_guajira_putumayo", "crs": {"type": "name", "properties": {"name": "urn:ogc:def:crs:OGC:1.3:CRS84"}}, "features": [{"type": "Feature", "properties": {"codigo_mpio": 20001, "nombre_mpio": "Valledupar", "codigo_dpto": 20, "nombre_dpto": "Cesar", "lon": -73.2505, "lat": 10.4631}, "geometry": {"type": "Polygon", "coordinates": [[[-72.8505, 10.4631], [-72.96766, 10.66109], [-73.2505, 10.7431], [-73.53334, 10.66109], [-73.6505, 10.4631], [-73.53334, 10.26511], [-73.2505, 10.1831], [-72.96766, 10.26511], [-72.8505, 10.4631]]]}}, {"type": "Feature", "properties": {"codigo_mpio": 20011, "nombre_mpio": "Aguachica", "codigo_dpto": 20, "nombre_dpto": "Cesar", "lon": -73.6187, "lat": 8.3084}, "geometry": {"type": "Polygon", "coordinates": [[[-73.3387, 8.3084], [-73.42071, 8.44699], [-73.6187, 8.5044], [-73.81669, 8.44699], [-73.8987, 8.3084], [-73.81669, 8.16981], [-73.6187, 8.1124], [-73.42071, 8.16981], [-73.3387, 8.3084]]]}}, {"type": "Feature", "properties": {"codigo_mpio": 20013, "nombre_mpio": "Agustín Codazzi", "codigo_dpto": 20, "nombre_dpto": "Cesar", "lon": -73.2322, "lat": 9.918}, "geometry": {"type": "Polygon", "coordinates": [[[-72.9522, 9.918], [-73.03421, 10.05659], [-73.2322, 10.114], [-73.43019, 10.05659], [-73.5122, 9.918], [-73.43019, 9.77941], [-73.2322, 9.722], [-73.03421, 9.77941], [-72.9522, 9.918]]]}}, {"type": "Feature", "properties": {"codigo_mpio": 20032, "nombre_mpio": "Astrea", "codigo_dpto": 20, "nombre_dpto": "Cesar", "lon": -74.0072, "lat": 9.4853}, "geometry": {"type": "Polygon", "coordinates": [[[-73.7872, 9.4853], [-73.85164, 9.59419], [-74.0072, 9.6393], [-74.16276, 9.59419], [-74.2272, 9.4853], [-74.16276, 9.37641], [-74.0072, 9.3313], [-73.85164, 9.37641], [-73.7872, 9.4853]]]}}, {"type": "Feature", "properties": {"codigo_mpio": 20045, "nombre_mpio": "Becerril", "codigo_dpto": 20, "nombre_dpto": "Cesar", "lon": -73.273, "lat": 9.7003}, "geometry": {"type": "Polygon", "coordinates": [[[-73.023, 9.7003], [-73.09622, 9.82404], [-73.273, 9.8753], [-73.44978, 9.82404], [-73.523, 9.7003], [-73.44978, 9.57656], [-73.273, 9.5253], [-73.09622, 9.57656], [-73.023, 9.7003]]]}}, {"type": "Feature", "properties": {"codigo_mpio": 20060, "nombre_mpio": "Bosconia", "codigo_dpto": 20, "nombre_dpto": "Cesar", "lon": -73.8889, "lat": 9.9716}, "geometry": {"type": "Polygon", "coordinates": [[[-73.6889, 9.9716], [-73.74748, 10.07059], [-73.8889, 10.1116], [-74.03032, 10.07059], [-74.0889, 9.9716], [-74.03032, 9.87261], [-73.8889, 9.8316], [-73.74748, 9.87261], [-73.6889, 9.9716]]]}}, {"type": "Feature", "properties": {"codigo_mpio": 20175, "nombre_mpio": "Chimichagua", "codigo_dpto": 20, "nombre_dpto": "Cesar", "lon": -73.8145, "lat": 9.2621}, "geometry": {"type": "Polygon", "coordinates": [[[-73.5145, 9.2621], [-73.60237, 9.41059], [-73.8145, 9.4721], [-74.02663, 9.41059], [-74.1145, 9.2621], [-74.02663, 9.11361], [-73.8145, 9.0521], [-73.60237, 9.11361], [-73.5145, 9.2621]]]}}, {"type": "Feature", "properties": {"codigo_mpio": 20178, "nombre_mpio": "Chiriguaná", "codigo_dpto": 20, "nombre_dpto": "Cesar", "lon": -73.5999, "lat": 9.3638}, "geometry": {"type": "Polygon", "coordinates": [[[-73.3799, 9.3638], [-73.44434, 9.47269], [-73.5999, 9.5178], [-73.75546, 9.47269], [-73.8199, 9.3638], [-73.75546, 9.25491], [-73.5999, 9.2098], [-73.44434, 9.25491], [-73.3799, 9.3638]]]}}, {"type": "Feature", "properties": {"codigo_mpio": 20228, "nombre_mpio": "Curumaní", "codigo_dpto": 20, "nombre_dpto": "Cesar", "lon": -73.54, "lat": 9.2046}, "geometry": {"type": "Polygon", "coordinates": [[[-73.31, 9.2046], [-73.37737, 9.31844], [-73.54, 9.3656], [-73.70263, 9.31844], [-73.77, 9.2046], [-73.70263, 9.09076], [-73.54, 9.0436], [-73.37737, 9.09076], [-73.31, 9.2046]]]}}, {"type": "Feature", "properties": {"codigo_mpio": 20238, "nombre_mpio": "El Copey", "codigo_dpto": 20, "nombre_dpto": "Cesar", "lon": -74.0007, "lat": 10.1511}, "geometry": {"type": "Polygon", "coordinates": [[[-73.7207, 10.1511], [-73.80271, 10.28969], [-74.0007, 10.3471], [-74.19869, 10.28969], [-74.2807, 10.1511], [-74.19869, 10.01251], [-74.0007, 9.9551], [-73.80271, 10.01251], [-73.7207, 10.1511]]]}}, {"type": "Feature", "properties": {"codigo_mpio": 20250, "nombre_mpio": "El Paso", "codigo_dpto": 20, "nombre_dpto": "Cesar", "lon": -73.9888, "lat": 9.6637}, "geometry": {"type": "Polygon", "coordinates": [[[-73.7388, 9.6637], [-73.81202, 9.78744], [-73.9888, 9.8387], [-74.16558, 9.78744], [-74.2388, 9.6637], [-74.16558, 9.53996], [-73.9888, 9.4887], [-73.81202, 9.53996], [-73.7388, 9.6637]]]}}, {"type": "Feature", "properties": {"codigo_mpio": 20295, "nombre_mpio": "Gamarra", "codigo_dpto": 20, "nombre_dpto": "Cesar", "lon": -73.7478, "lat": 8.3351}, "geometry": {"type": "Polygon", "coordinates": [[[-73.5678, 8.3351], [-73.62052, 8.4242], [-73.7478, 8.4611], [-73.87508, 8.4242], [-73.9278, 8.3351], [-73.87508, 8.246], [-73.7478, 8.2091], [-73.62052, 8.246], [-73.5678, 8.3351]]]}}, {"type": "Feature", "properties": {"codigo_mpio": 20310, "nombre_mpio": "González", "codigo_dpto": 20, "nombre_dpto": "Cesar", "lon": -73.4002, "lat": 8.3232}, "geometry": {"type": "Polygon", "coordinates": [[[-73.2202, 8.3232], [-73.27292, 8.4123], [-73.4002, 8.4492], [-73.52748, 8.4123], [-73.5802, 8.3232], [-73.52748, 8.2341], [-73.4002, 8.1972], [-73.27292, 8.2341], [-73.2202, 8.3232]]]}}, {"type": "Feature", "properties": {"codigo_mpio": 20383, "nombre_mpio": "La Gloria", "codigo_dpto": 20, "nombre_dpto": "Cesar", "lon": -73.7107, "lat": 8.5997}, "geometry": {"type": "Polygon", "coordinates": [[[-73.5107, 8.5997], [-73.56928, 8.69869], [-73.7107, 8.7397], [-73.85212, 8.69869], [-73.9107, 8.5997], [-73.85212, 8.50071], [-73.7107, 8.4597], [-73.56928, 8.50071], [-73.5107, 8.5997]]]}}, {"type": "Feature", "properties": {"codigo_mpio": 20400, "nombre_mpio": "La Jagua de Ibirico", "codigo_dpto": 20, "nombre_dpto": "Cesar", "lon": -73.3299, "lat": 9.5611}, "geometry": {"type": "Polygon", "coordinates": [[[-73.0499, 9.5611], [-73.13191, 9.69969], [-73.3299, 9.7571], [-73.52789, 9.69969], [-73.6099, 9.5611], [-73.52789, 9.42251], [-73.3299, 9.3651], [-73.13191, 9.42251], [-73.0499, 9.5611]]]}}, {"type": "Feature", "properties": {"codigo_mpio": 20443, "nombre_mpio": "Manaure Balcón del Cesar", "codigo_dpto": 20, "nombre_dpto": "Cesar", "lon": -73.3444, "lat": 10.387}, "geometry": {"type": "Polygon", "coordinates": [[[-73.1244, 10.387], [-73.18884, 10.49589], [-73.3444, 10.541], [-73.49996, 10.49589], [-73.5644, 10.387], [-73.49996, 10.27811], [-73.3444, 10.233], [-73.18884, 10.27811], [-73.1244, 10.387]]]}}, {"type": "Feature", "properties": {"codigo_mpio": 20517, "nombre_mpio": "Pailitas", "codigo_dpto": 20, "nombre_dpto": "Cesar", "lon": -73.6298, "lat": 8.9571}, "geometry": {"type": "Polygon", "coordinates": [[[-73.4098, 8.9571], [-73.47424, 9.06599], [-73.6298, 9.1111], [-73.78536, 9.06599], [-73.8498, 8.9571], [-73.78536, 8.84821], [-73.6298, 8.8031], [-73.47424, 8.84821], [-73.4098, 8.9571]]]}}, {"type": "Feature", "properties": {"codigo_mpio": 20550, "nombre_mpio": "Pelaya", "codigo_dpto": 20, "nombre_dpto": "Cesar", "lon": -73.6635, "lat": 8.6938}, "geometry": {"type": "Polygon", "coordinates": [[[-73.4835, 8.6938], [-73.53622, 8.7829], [-73.6635, 8.8198], [-73.79078, 8.7829], [-73.8435, 8.6938], [-73.79078, 8.6047], [-73.6635, 8.5678], [-73.53622, 8.6047], [-73.4835, 8.6938]]]}}, {"type": "Feature", "properties": {"codigo_mpio": 20570, "nombre_mpio": "Pueblo Bello", "codigo_dpto": 20, "nombre_dpto": "Cesar", "lon": -73.5876, "lat": 10.4181}, "geometry": {"type": "Polygon", "coordinates": [[[-73.3876, 10.4181], [-73.44618, 10.51709], [-73.5876, 10.5581], [-73.72902, 10.51709], [-73.7876, 10.4181], [-73.72902, 10.31911], [-73.5876, 10.2781], [-73.44618, 10.31911], [-73.3876, 10.4181]]]}}, {"type": "Feature", "properties": {"codigo_mpio": 20614, "nombre_mpio": "Río de Oro", "codigo_dpto": 20, "nombre_dpto": "Cesar", "lon": -73.4172, "lat": 8.2947}, "geometry": {"type": "Polygon", "coordinates": [[[-73.2172, 8.2947], [-73.27578, 8.39369], [-73.4172, 8.4347], [-73.55862, 8.39369], [-73.6172, 8.2947], [-73.55862, 8.19571], [-73.4172, 8.1547], [-73.27578, 8.19571], [-73.2172, 8.2947]]]}}, {"type": "Feature", "properties": {"codigo_mpio": 20621, "nombre_mpio": "La Paz", "codigo_dpto": 20, "nombre_dpto": "Cesar", "lon": -73.1714, "lat": 10.3722}, "geometry": {"type": "Polygon", "coordinates": [[[-72.9714, 10.3722], [-73.02998, 10.47119], [-73.1714, 10.5122], [-73.31282, 10.47119], [-73.3714, 10.3722], [-73.31282, 10.27321], [-73.1714, 10.2322], [-73.02998, 10.27321], [-72.9714, 10.3722]]]}}, {"type": "Feature", "properties": {"codigo_mpio": 20710, "nombre_mpio": "San Alberto", "codigo_dpto": 20, "nombre_dpto": "Cesar", "lon": -73.3881, "lat": 7.7637}, "geometry": {"type": "Polygon", "coordinates": [[[-73.1881, 7.7637], [-73.24668, 7.86269], [-73.3881, 7.9037], [-73.52952, 7.86269], [-73.5881, 7.7637], [-73.52952, 7.66471], [-73.3881, 7.6237], [-73.24668, 7.66471], [-73.1881, 7.7637]]]}}, {"type": "Feature", "properties": {"codigo_mpio": 20750, "nombre_mpio": "San Diego", "codigo_dpto": 20, "nombre_dpto": "Cesar", "lon": -73.1878, "lat": 9.9818}, "geometry": {"type": "Polygon", "coordinates": [[[-72.9678, 9.9818], [-73.03224, 10.09069], [-73.1878, 10.1358], [-73.34336, 10.09069], [-73.4078, 9.9818], [-73.34336, 9.87291], [-73.1878, 9.8278], [-73.03224, 9.87291], [-72.9678, 9.9818]]]}}, {"type": "Feature", "properties": {"codigo_mpio": 20770, "nombre_mpio": "San Martín", "codigo_dpto": 20, "nombre_dpto": "Cesar", "lon": -73.6956, "lat": 7.8513}, "geometry": {"type": "Polygon", "coordinates": [[[-73.4956, 7.8513], [-73.55418, 7.95029], [-73.6956, 7.9913], [-73.83702, 7.95029], [-73.8956, 7.8513], [-73.83702, 7.75231], [-73.6956, 7.7113], [-73.55418, 7.75231], [-73.4956, 7.8513]]]}}, {"type": "Feature", "properties": {"codigo_mpio": 20787, "nombre_mpio": "Tamalameque", "codigo_dpto": 20, "nombre_dpto": "Cesar", "lon": -73.812, "lat": 8.8629}, "geometry": {"type": "Polygon", "coordinates": [[[-73.612, 8.8629], [-73.67058, 8.96189], [-73.812, 9.0029], [-73.95342, 8.96189], [-74.012, 8.8629], [-73.95342, 8.76391], [-73.812, 8.7229], [-73.67058, 8.76391], [-73.612, 8.8629]]]}}, {"type": "Feature", "properties": {"codigo_mpio": 44001, "nombre_mpio": "Riohacha", "codigo_dpto": 44, "nombre_dpto": "La Guajira", "lon": -72.9067, "lat": 11.5444}, "geometry": {"type": "Polygon", "coordinates": [[[-72.5067, 11.5444], [-72.62386, 11.74239], [-72.9067, 11.8244], [-73.18954, 11.74239], [-73.3067, 11.5444], [-73.18954, 11.34641], [-72.9067, 11.2644], [-72.62386, 11.34641], [-72.5067, 11.5444]]]}}, {"type": "Feature", "properties": {"codigo_mpio": 44035, "nombre_mpio": "Albania", "codigo_dpto": 44, "nombre_dpto": "La Guajira", "lon": -72.5878, "lat": 11.1467}, "geometry": {"type": "Polygon", "coordinates": [[[-72.3378, 11.1467], [-72.41102, 11.27044], [-72.5878, 11.3217], [-72.76458, 11.27044], [-72.8378, 11.1467], [-72.76458, 11.02296], [-72.5878, 10.9717], [-72.41102, 11.02296], [-72.3378, 11.1467]]]}}, {"type": "Feature", "properties": {"codigo_mpio": 44078, "nombre_mpio": "Barrancas", "codigo_dpto": 44, "nombre_dpto": "La Guajira", "lon": -72.787, "lat": 10.9578}, "geometry": {"type": "Polygon", "coordinates": [[[-72.537, 10.9578], [-72.61022, 11.08154], [-72.787, 11.1328], [-72.96378, 11.08154], [-73.037, 10.9578], [-72.96378, 10.83406], [-72.787, 10.7828], [-72.61022, 10.83406], [-72.537, 10.9578]]]}}, {"type": "Feature", "properties": {"codigo_mpio": 44090, "nombre_mpio": "Dibulla", "codigo_dpto": 44, "nombre_dpto": "La Guajira", "lon": -73.2885, "lat": 11.2601}, "geometry": {"type": "Polygon", "coordinates": [[[-72.9885, 11.2601], [-73.07637, 11.40859], [-73.2885, 11.4701], [-73.50063, 11.40859], [-73.5885, 11.2601], [-73.50063, 11.11161], [-73.2885, 11.0501], [-73.07637, 11.11161], [-72.9885, 11.2601]]]}}, {"type": "Feature", "properties": {"codigo_mpio": 44098, "nombre_mpio": "Distracción", "codigo_dpto": 44, "nombre_dpto": "La Guajira", "lon": -72.9118, "lat": 10.9256}, "geometry": {"type": "Polygon", "coordinates": [[[-72.7318, 10.9256], [-72.78452, 11.0147], [-72.9118, 11.0516], [-73.03908, 11.0147], [-73.0918, 10.9256], [-73.03908, 10.8365], [-72.9118, 10.7996], [-72.78452, 10.8365], [-72.7318, 10.9256]]]}}, {"type": "Feature", "properties": {"codigo_mpio": 44110, "nombre_mpio": "El Molino", "codigo_dpto": 44, "nombre_dpto": "La Guajira", "lon": -72.9365, "lat": 10.8542}, "geometry": {"type": "Polygon", "coordinates": [[[-72.7765, 10.8542], [-72.82336, 10.9334], [-72.9365, 10.9662], [-73.04964, 10.9334], [-73.0965, 10.8542], [-73.04964, 10.775], [-72.9365, 10.7422], [-72.82336, 10.775], [-72.7765, 10.8542]]]}}, {"type": "Feature", "properties": {"codigo_mpio": 44279, "nombre_mpio": "Fonseca", "codigo_dpto": 44, "nombre_dpto": "La Guajira", "lon": -72.8431, "lat": 10.8949}, "geometry": {"type": "Polygon", "coordinates": [[[-72.6231, 10.8949], [-72.68754, 11.00379], [-72.8431, 11.0489], [-72.99866, 11.00379], [-73.0631, 10.8949], [-72.99866, 10.78601], [-72.8431, 10.7409], [-72.68754, 10.78601], [-72.6231, 10.8949]]]}}, {"type": "Feature", "properties": {"codigo_mpio": 44378, "nombre_mpio": "Hatonuevo", "codigo_dpto": 44, "nombre_dpto": "La Guajira", "lon": -72.754, "lat": 11.0667}, "geometry": {"type": "Polygon", "coordinates": [[[-72.574, 11.0667], [-72.62672, 11.1558], [-72.754, 11.1927], [-72.88128, 11.1558], [-72.934, 11.0667], [-72.88128, 10.9776], [-72.754, 10.9407], [-72.62672, 10.9776], [-72.574, 11.0667]]]}}, {"type": "Feature", "properties": {"codigo_mpio": 44420, "nombre_mpio": "La Jagua del Pilar", "codigo_dpto": 44, "nombre_dpto": "La Guajira", "lon": -73.0193, "lat": 10.803}, "geometry": {"type": "Polygon", "coordinates": [[[-72.8593, 10.803], [-72.90616, 10.8822], [-73.0193, 10.915], [-73.13244, 10.8822], [-73.1793, 10.803], [-73.13244, 10.7238], [-73.0193, 10.691], [-72.90616, 10.7238], [-72.8593, 10.803]]]}}, {"type": "Feature", "properties": {"codigo_mpio": 44430, "nombre_mpio": "Maicao", "codigo_dpto": 44, "nombre_dpto": "La Guajira", "lon": -72.2476, "lat": 11.3732}, "geometry": {"type": "Polygon", "coordinates": [[[-71.8976, 11.3732], [-72.00011, 11.54644], [-72.2476, 11.6182], [-72.49509, 11.54644], [-72.5976, 11.3732], [-72.49509, 11.19996], [-72.2476, 11.1282], [-72.00011, 11.19996], [-71.8976, 11.3732]]]}}, {"type": "Feature", "properties": {"codigo_mpio": 44560, "nombre_mpio": "Manaure", "codigo_dpto": 44, "nombre_dpto": "La Guajira", "lon": -72.4443, "lat": 11.777}, "geometry": {"type": "Polygon", "coordinates": [[[-72.0943, 11.777], [-72.19681, 11.95024], [-72.4443, 12.022], [-72.69179, 11.95024], [-72.7943, 11.777], [-72.69179, 11.60376], [-72.4443, 11.532], [-72.19681, 11.60376], [-72.0943, 11.777]]]}}, {"type": "Feature", "properties": {"codigo_mpio": 44650, "nombre_mpio": "San Juan del Cesar", "codigo_dpto": 44, "nombre_dpto": "La Guajira", "lon": -73.0068, "lat": 10.7697}, "geometry": {"type": "Polygon", "coordinates": [[[-72.7868, 10.7697], [-72.85124, 10.87859], [-73.0068, 10.9237], [-73.16236, 10.87859], [-73.2268, 10.7697], [-73.16236, 10.66081], [-73.0068, 10.6157], [-72.85124, 10.66081], [-72.7868, 10.7697]]]}}, {"type": "Feature", "properties": {"codigo_mpio": 44847, "nombre_mpio": "Uribia", "codigo_dpto": 44, "nombre_dpto": "La Guajira", "lon": -72.2695, "lat": 11.7134}, "geometry": {"type": "Polygon", "coordinates": [[[-71.6695, 11.7134], [-71.84524, 12.01038], [-72.2695, 12.1334], [-72.69376, 12.01038], [-72.8695, 11.7134], [-72.69376, 11.41642], [-72.2695, 11.2934], [-71.84524, 11.41642], [-71.6695, 11.7134]]]}}, {"type": "Feature", "properties": {"codigo_mpio": 44855, "nombre_mpio": "Urumita", "codigo_dpto": 44, "nombre_dpto": "La Guajira", "lon": -73.0124, "lat": 10.5626}, "geometry": {"type": "Polygon", "coordinates": [[[-72.8524, 10.5626], [-72.89926, 10.6418], [-73.0124, 10.6746], [-73.12554, 10.6418], [-73.1724, 10.5626], [-73.12554, 10.4834], [-73.0124, 10.4506], [-72.89926, 10.4834], [-72.8524, 10.5626]]]}}, {"type": "Feature", "properties": {"codigo_mpio": 44874, "nombre_mpio": "Villanueva", "codigo_dpto": 44, "nombre_dpto": "La Guajira", "lon": -72.9848, "lat": 10.6169}, "geometry": {"type": "Polygon", "coordinates": [[[-72.8048, 10.6169], [-72.85752, 10.706], [-72.9848, 10.7429], [-73.11208, 10.706], [-73.1648, 10.6169], [-73.11208, 10.5278], [-72.9848, 10.4909], [-72.85752, 10.5278], [-72.8048, 10.6169]]]}}, {"type": "Feature", "properties": {"codigo_mpio": 86001, "nombre_mpio": "Mocoa", "codigo_dpto": 86, "nombre_dpto": "Putumayo", "lon": -76.6478, "lat": 1.1523}, "geometry": {"type": "Polygon", "coordinates": [[[-76.3678, 1.1523], [-76.44981, 1.29089], [-76.6478, 1.3483], [-76.84579, 1.29089], [-76.9278, 1.1523], [-76.84579, 1.01371], [-76.6478, 0.9563], [-76.44981, 1.01371], [-76.3678, 1.1523]]]}}, {"type": "Feature", "properties": {"codigo_mpio": 86219, "nombre_mpio": "Colón", "codigo_dpto": 86, "nombre_dpto": "Putumayo", "lon": -76.9697, "lat": 1.1956}, "geometry": {"type": "Polygon", "coordinates": [[[-76.7697, 1.1956], [-76.82828, 1.29459], [-76.9697, 1.3356], [-77.11112, 1.29459], [-77.1697, 1.1956], [-77.11112, 1.09661], [-76.9697, 1.0556], [-76.82828, 1.09661], [-76.7697, 1.1956]]]}}, {"type": "Feature", "properties": {"codigo_mpio": 86320, "nombre_mpio": "Orito", "codigo_dpto": 86, "nombre_dpto": "Putumayo", "lon": -76.8762, "lat": 0.6641}, "geometry": {"type": "Polygon", "coordinates": [[[-76.5262, 0.6641], [-76.62871, 0.83734], [-76.8762, 0.9091], [-77.12369, 0.83734], [-77.2262, 0.6641], [-77.12369, 0.49086], [-76.8762, 0.4191], [-76.62871, 0.49086], [-76.5262, 0.6641]]]}}, {"type": "Feature", "properties": {"codigo_mpio": 86568, "nombre_mpio": "Puerto Asís", "codigo_dpto": 86, "nombre_dpto": "Putumayo", "lon": -76.4997, "lat": 0.5207}, "geometry": {"type": "Polygon", "coordinates": [[[-76.1197, 0.5207], [-76.231, 0.70879], [-76.4997, 0.7867], [-76.7684, 0.70879], [-76.8797, 0.5207], [-76.7684, 0.33261], [-76.4997, 0.2547], [-76.231, 0.33261], [-76.1197, 0.5207]]]}}, {"type": "Feature", "properties": {"codigo_mpio": 86569, "nombre_mpio": "Puerto Caicedo", "codigo_dpto": 86, "nombre_dpto": "Putumayo", "lon": -76.5841, "lat": 0.6917}, "geometry": {"type": "Polygon", "coordinates": [[[-76.3041, 0.6917], [-76.38611, 0.83029], [-76.5841, 0.8877], [-76.78209, 0.83029], [-76.8641, 0.6917], [-76.78209, 0.55311], [-76.5841, 0.4957], [-76.38611, 0.55311], [-76.3041, 0.6917]]]}}, {"type": "Feature", "properties": {"codigo_mpio": 86571, "nombre_mpio": "Puerto Guzmán", "codigo_dpto": 86, "nombre_dpto": "Putumayo", "lon": -76.4107, "lat": 0.9657}, "geometry": {"type": "Polygon", "coordinates": [[[-75.9907, 0.9657], [-76.11372, 1.17359], [-76.4107, 1.2597], [-76.70768, 1.17359], [-76.8307, 0.9657], [-76.70768, 0.75781], [-76.4107, 0.6717], [-76.11372, 0.75781], [-75.9907, 0.9657]]]}}, {"type": "Feature", "properties": {"codigo_mpio": 86573, "nombre_mpio": "Puerto Leguízamo", "codigo_dpto": 86, "nombre_dpto": "Putumayo", "lon": -74.7792, "lat": -0.1997}, "geometry": {"type": "Polygon", "coordinates": [[[-74.1292, -0.1997], [-74.31958, 0.12203], [-74.7792, 0.2553], [-75.23882, 0.12203], [-75.4292, -0.1997], [-75.23882, -0.52143], [-74.7792, -0.6547], [-74.31958, -0.52143], [-74.1292, -0.1997]]]}}, {"type": "Feature", "properties": {"codigo_mpio": 86749, "nombre_mpio": "Sibundoy", "codigo_dpto": 86, "nombre_dpto": "Putumayo", "lon": -76.9236, "lat": 1.2064}, "geometry": {"type": "Polygon", "coordinates": [[[-76.7436, 1.2064], [-76.79632, 1.2955], [-76.9236, 1.3324], [-77.05088, 1.2955], [-77.1036, 1.2064], [-77.05088, 1.1173], [-76.9236, 1.0804], [-76.79632, 1.1173], [-76.7436, 1.2064]]]}}, {"type": "Feature", "properties": {"codigo_mpio": 86755, "nombre_mpio": "San Francisco", "codigo_dpto": 86, "nombre_dpto": "Putumayo", "lon": -76.8921, "lat": 1.1884}, "geometry": {"type": "Polygon", "coordinates": [[[-76.6921, 1.1884], [-76.75068, 1.28739], [-76.8921, 1.3284], [-77.03352, 1.28739], [-77.0921, 1.1884], [-77.03352, 1.08941], [-76.8921, 1.0484], [-76.75068, 1.08941], [-76.6921, 1.1884]]]}}, {"type": "Feature", "properties": {"codigo_mpio": 86757, "nombre_mpio": "San Miguel", "codigo_dpto": 86, "nombre_dpto": "Putumayo", "lon": -76.8984, "lat": 0.3072}, "geometry": {"type": "Polygon", "coordinates": [[[-76.6184, 0.3072], [-76.70041, 0.44579], [-76.8984, 0.5032], [-77.09639, 0.44579], [-77.1784, 0.3072], [-77.09639, 0.16861], [-76.8984, 0.1112], [-76.70041, 0.16861], [-76.6184, 0.3072]]]}}, {"type": "Feature", "properties": {"codigo_mpio": 86760, "nombre_mpio": "Santiago", "codigo_dpto": 86, "nombre_dpto": "Putumayo", "lon": -76.9936, "lat": 1.1449}, "geometry": {"type": "Polygon", "coordinates": [[[-76.8136, 1.1449], [-76.86632, 1.234], [-76.9936, 1.2709], [-77.12088, 1.234], [-77.1736, 1.1449], [-77.12088, 1.0558], [-76.9936, 1.0189], [-76.86632, 1.0558], [-76.8136, 1.1449]]]}}, {"type": "Feature", "properties": {"codigo_mpio": 86865, "nombre_mpio": "Valle del Guamuez", "codigo_dpto": 86, "nombre_dpto": "Putumayo", "lon": -76.9128, "lat": 0.4297}, "geometry": {"type": "Polygon", "coordinates": [[[-76.6128, 0.4297], [-76.70067, 0.57819], [-76.9128, 0.6397], [-77.12493, 0.57819], [-77.2128, 0.4297], [-77.12493, 0.28121], [-76.9128, 0.2197], [-76.70067, 0.28121], [-76.6128, 0.4297]]]}}, {"type": "Feature", "properties": {"codigo_mpio": 86885, "nombre_mpio": "Villagarzón", "codigo_dpto": 86, "nombre_dpto": "Putumayo", "lon": -76.6254, "lat": 1.0328}, "geometry": {"type": "Polygon", "coordinates": [[[-76.3254, 1.0328], [-76.41327, 1.18129], [-76.6254, 1.2428], [-76.83753, 1.18129], [-76.9254, 1.0328], [-76.83753, 0.88431], [-76.6254, 0.8228], [-76.41327, 0.88431], [-76.3254, 1.0328]]]}}]}